[{"OBJECT_NAME":"STARLINK-1762","OBJECT_ID":"2020-062T","EPOCH":"2026-03-09T06:43:23.787552","MEAN_MOTION":15.30238327,"ECCENTRICITY":0.00012078,"INCLINATION":53.1598,"RA_OF_ASC_NODE":12.8842,"ARG_OF_PERICENTER":92.6573,"MEAN_ANOMALY":267.4566,"EPHEMERIS_TYPE":0,"CLASSIFICATION_TYPE":"U","NORAD_CAT_ID":46342,"ELEMENT_SET_NO":999,"REV_AT_EPOCH":30433,"BSTAR":0.00045337051,"MEAN_MOTION_DOT":0.00013108,"MEAN_MOTION_DDOT":0},{"OBJECT_NAME":"TOMORROW-S2","OBJECT_ID":"2024-149T","EPOCH":"2026-03-09T18:02:42.746496","MEAN_MOTION":15.30674935,"ECCENTRICITY":0.0001648,"INCLINATION":97.3857,"RA_OF_ASC_NODE":150.0385,"ARG_OF_PERICENTER":234.3331,"MEAN_ANOMALY":125.7757,"EPHEMERIS_TYPE":0,"CLASSIFICATION_TYPE":"U","NORAD_CAT_ID":60485,"ELEMENT_SET_NO":999,"REV_AT_EPOCH":8686,"BSTAR":0.00027683033,"MEAN_MOTION_DOT":8.133e-5,"MEAN_MOTION_DDOT":0}]
